[{"OBJECT_NAME":"KUIPER-00107","OBJECT_ID":"2025-171P","EPOCH":"2026-03-09T10:01:55.263072","MEAN_MOTION":14.79944344,"ECCENTRICITY":5.032e-5,"INCLINATION":51.898,"RA_OF_ASC_NODE":149.2906,"ARG_OF_PERICENTER":95.2186,"MEAN_ANOMALY":264.8834,"EPHEMERIS_TYPE":0,"CLASSIFICATION_TYPE":"U","NORAD_CAT_ID":65145,"ELEMENT_SET_NO":999,"REV_AT_EPOCH":3299,"BSTAR":-7.1654312e-5,"MEAN_MOTION_DOT":-7.67e-6,"MEAN_MOTION_DDOT":0},{"OBJECT_NAME":"DELTA 1 DEB","OBJECT_ID":"1975-004AN","EPOCH":"2026-03-09T23:12:54.859104","MEAN_MOTION":14.86279271,"ECCENTRICITY":0.00227404,"INCLINATION":98.3675,"RA_OF_ASC_NODE":250.34,"ARG_OF_PERICENTER":236.8085,"MEAN_ANOMALY":123.0948,"EPHEMERIS_TYPE":0,"CLASSIFICATION_TYPE":"U","NORAD_CAT_ID":8956,"ELEMENT_SET_NO":999,"REV_AT_EPOCH":64723,"BSTAR":0.00043206902,"MEAN_MOTION_DOT":3.758e-5,"MEAN_MOTION_DDOT":0}]
